IRIDIUM 152             
1 43479U 18047D   26087.79826764  .00000172  00000+0  54379-4 0  9990
2 43479  86.3939 121.9557 0002170  90.7842 269.3603 14.34217900410967
IRIDIUM 147             
1 43480U 18047E   26086.82785209 -.00000060  00000+0 -28314-4 0  9991
2 43480  86.3942 122.3650 0002246  94.4871 265.6581 14.34216701410826
IRIDIUM 110             
1 43481U 18047F   26087.60164587  .00000268  00000+0  88676-4 0  9994
2 43481  86.3943 122.1314 0002090  84.0592 276.0842 14.34217713410926
IRIDIUM 162             
1 43482U 18047G   26087.60024395  .00000315  00000+0  87574-4 0  9996
2 43482  86.4464 122.0702 0002196  96.1908 263.9543 14.43286950413507
IRIDIUM 160             
1 43569U 18061A   26087.75678706  .00000008  00000+0 -42810-5 0  9990
2 43569  86.3910  90.4344 0002129  86.8917 273.2523 14.34217453401848
IRIDIUM 166             
1 43570U 18061B   26087.92169578 -.00000084  00000+0 -37015-4 0  9998
2 43570  86.3909  90.3168 0002236  91.9505 268.1947 14.34216657401893
IRIDIUM 158             
1 43571U 18061C   26087.54113898  .00000021  00000+0  32846-6 0  9999
2 43571  86.3908  90.4860 0002004  91.8614 268.2811 14.34217616401804
IRIDIUM 165             
1 43572U 18061D   26087.70604600 -.00000005  00000+0 -86964-5 0  9997
2 43572  86.3911  90.4618 0002254  92.8466 267.2988 14.34217738401857
IRIDIUM 155             
1 43573U 18061E   26087.52845397 -.00000004  00000+0 -84915-5 0  9991
2 43573  86.3905  90.4091 0002072  94.2901 265.8531 14.34217440401795
IRIDIUM 154             
1 43574U 18061F   26087.50942696 -.00000008  00000+0 -99168-5 0  9990
2 43574  86.3909  90.5467 0002304  92.5042 267.6418 14.34217472401848
IRIDIUM 163             
1 43575U 18061G   26087.69970324  .00000001  00000+0 -67353-5 0  9993
2 43575  86.3907  90.3849 0002050  90.5648 269.5783 14.34217260401848
IRIDIUM 156             
1 43576U 18061H   26087.74410238 -.00000028  00000+0 -16899-4 0  9991
2 43576  86.3907  90.3735 0002104  95.6333 264.5103 14.34217375401848
IRIDIUM 164             
1 43577U 18061J   26087.93438015 -.00000006  00000+0 -91411-5 0  9996
2 43577  86.3908  90.3329 0002324  89.0804 271.0658 14.34217297401912
IRIDIUM 159             
1 43578U 18061K   26087.76312983  .00000061  00000+0  14783-4 0  9998
2 43578  86.3905  90.3431 0002205  86.8787 273.2662 14.34217808401857
IRIDIUM 180             
1 43922U 19002A   26087.90216366  .00000315  00000+0  10535-3 0  9993
2 43922  86.4006  27.1377 0002200  82.2753 277.8693 14.34218588377489
IRIDIUM 176             
1 43923U 19002B   26087.88914125  .00001071  00000+0  16593-3 0  9999
2 43923  86.6126  27.0977 0002635  87.1762 272.9757 14.72251748387436
IRIDIUM 168             
1 43924U 19002C   26087.82605281  .00000189  00000+0  60504-4 0  9995
2 43924  86.4008  27.2447 0002135  85.1387 275.0052 14.34218406377459
